NUSHSAT1                
1 63211U 25052B   26068.64700493  .00023034  00000+0  74857-3 0  9997
2 63211  97.4095 325.7239 0005501  84.7512 275.4357 15.31903202 54882
STARLINK-34553          
1 64681U 25139T   26068.66132510  .00031642  00000+0  10760-2 0  9992
2 64681  53.1580 126.8904 0001332  73.3241 286.7905 15.30197010 40286
